#aV2014  1 26  0  0  0.00000000     288 DD+AD WGS84 FIT  NGA
## 1777      0.00000000   300.00000000 56683 0.0000000000000
+   32     1  2  3  4  5  6  7  8  9 10 11 12 13 14 15 16 17
+         18 19 20 21 22 23 24 25 26 27 28 29 30 31 32  0  0
+          0  0  0  0  0  0  0  0  0  0  0  0  0  0  0  0  0
+          0  0  0  0  0  0  0  0  0  0  0  0  0  0  0  0  0
+          0  0  0  0  0  0  0  0  0  0  0  0  0  0  0  0  0
++         2  2  2  2  2  2  2  2  2  2  2  2  2  2  2  2  2
++         2  2  2  2  2  2  2  2  2  2  2  2  2  2  2  0  0
++         0  0  0  0  0  0  0  0  0  0  0  0  0  0  0  0  0
++         0  0  0  0  0  0  0  0  0  0  0  0  0  0  0  0  0
++         0  0  0  0  0  0  0  0  0  0  0  0  0  0  0  0  0
%c cc cc ccc ccc cccc cccc cccc cccc ccccc ccccc ccccc ccccc
%c cc cc ccc ccc cccc cccc cccc cccc ccccc ccccc ccccc ccccc
%f  0.0000000  0.000000000  0.00000000000  0.000000000000000
%f  0.0000000  0.000000000  0.00000000000  0.000000000000000
%i    0    0    0    0      0      0      0      0         0
%i    0    0    0    0      0      0      0      0         0
/*      NGA, ST. LOUIS,MO.                                  
/*   EPHEMERIS COMPUTED FROM  1 DAYS OF DATA                
/*   EPOCHA SMOOTHER                                       
/* CCCCCCCCCCCCCCCCCCCCCCCCCCCCCCCCCCCCCCCCCCCCCCCCCCCCCCCCC
*  2014  1 26  2 10  0.00000000
P  1  -8246.676677 -13830.087659 -21175.853528    102.844109                    
V  1  26472.405230  -4148.177327  -7495.477791      0.023734                    
P  2 -14916.742669  14562.351640  16418.563914    474.900662                    
V  2 -20776.499729    813.098420 -20411.183085      0.021962                    
P  3   6948.990661 -25493.571028    991.567351    317.333793                    
V  3   3175.670596   2732.853010  31300.115461      0.048924                    
P  4 -25746.214363   6099.402384   3215.225480      5.079993                    
V  4  -4865.763428  -2639.895087 -30741.314449      0.002912                    
P  5  -4103.802331  17490.887687  19470.794094   -391.058321                    
V  5 -16500.981645 -18715.293386  13462.486845      0.013953                    
P  6  13388.639697 -21121.235283   8376.028489    250.485377                    
V  6   -131.354933  11237.837252  29119.437069      0.150815                    
P  7 -22004.512580  -6768.351156  13591.140896    306.795133                    
V  7  16698.252895  -3559.187181  25076.209662      0.042044                    
P  8 -26701.891294  -1470.353664   2989.795921     11.553382                    
V  8   3519.443941  -1173.864777  31852.945189      0.003016                    
P  9 -26430.984587   2307.089123   1917.466866    300.755168                    
V  9   2767.932999  -2403.347239  32018.869028      0.028319                    
P 10 -17804.325420    -68.383617  19502.546423   -111.581996                    
V 10 -14308.156737 -21055.473549 -12496.066608     -0.015399                    
P 11   -928.300953 -17706.477254 -20215.787766   -458.761147                    
V 11  23105.322847  -9626.772026   7779.410708     -0.032685                    
P 12  10298.163576  23311.586795  -7919.448440    182.473825                    
V 12  -7154.633720  -7055.170508 -30049.219464      0.023247                    
P 13 -10170.627542 -11580.080351  21475.734981     36.159560                    
V 13  13496.586240 -24034.164950  -6666.185624     -0.038206                    
P 14  17439.946635  -6357.060552 -18727.807038    203.313833                    
V 14  -9534.882637  22340.525910 -16414.156467     -0.016231                    
P 15  -2140.502831  24778.492343  -8947.622377   -159.618972                    
V 15  -7173.395260   9530.084293  28544.059688     -0.020483                    
P 16   4183.240341 -16998.310192  19831.502317   -234.022364                    
V 16  15249.434094  20205.942259  14418.449988      0.014122                    
P 17 -17320.303237   7474.121827 -18354.172461    -62.563095                    
V 17   8498.693147 -22372.852533 -17136.338371     -0.034285                    
P 18  20095.986035  15157.862776  -8552.574936    298.204482                    
V 18   4365.874820  11077.489152  28128.073130      0.020946                    
P 19   5471.438819 -24147.764772  -9108.893450   -434.661421                    
V 19   7774.009428  -8941.527710  29192.312884     -0.024984                    
P 20 -13392.907622 -22215.543511  -6076.307156    156.111604                    
V 20   7676.541671   3245.985001 -29646.624034      0.032466                    
P 21  23129.285613   6166.687419  12615.428895   -340.321461                    
V 21 -14455.206614   4588.406244  25020.307068     -0.021636                    
P 22  19609.690781   3723.833861 -17397.620733    209.245112                    
V 22  12145.072601  19126.761511  17430.976347      0.024410                    
P 23  -3539.771031 -20818.920585  15951.327558      9.497338                    
V 23   9973.629072 -17792.709172 -21531.816395     -0.032560                    
P 24   2745.722565  15040.447988 -21727.523408    -22.201075                    
V 24 -27280.554229   4043.358021   -565.560916     -0.006912                    
P 25  18206.799691  19031.832659   3844.815342     11.190591                    
V 25   1275.165573   5259.765840 -31495.354091      0.021070                    
P 26 -12632.691238  23128.047163    630.627650    183.635664                    
V 26  -1573.564854  -2629.780165  32300.951791     -0.107225                    
P 27  12606.549817 -22935.122162   4425.704613    -16.236537                    
V 27    428.568692   6244.155916  31148.945858     -0.016851                    
P 28 -18773.837829  -8322.739642 -16321.080660    327.505490                    
V 28 -11071.235565 -18802.701029  21389.315118      0.029688                    
P 29   8708.993054  14585.005508  20473.166959    506.110148                    
V 29 -11781.627705  23038.756039 -11385.263849      0.028771                    
P 30  15715.483927  -2703.986761  21124.517442   -155.262775                    
V 30  15885.922415  21945.255196  -8740.562034      0.007570                    
P 31  24583.462223  -7632.706489   7342.440303    332.696766                    
V 31   9150.552354    837.351035 -30148.580707      0.003643                    
P 32  -2323.172568 -22484.696582 -14292.813170   -496.132633                    
V 32  11579.802184  14057.447019 -23335.325038      0.059170                    
EOF
